[Satellite]
VERSION=1.1
NAME=VELOX-1
NICKNAME=VELOX-1
TLE1=1 40057U 14034E   18018.76488349  .00000269  00000-0  45474-4 0  9990
TLE2=2 40057  98.1947 127.3530 0012429  88.4324 271.8309 14.77324977191589
